{
  "type": "FeatureCollection",
  "features": [
    {
      "type": "Feature",
      "properties": {
        "norad_id": 31959,
        "name": "FENGYUN 1C DEB",
        "group": "fengyun-1c-debris",
        "lat": -27.151865152659827,
        "lon": -123.20873831426907,
        "alt_km": 755.5778754013672,
        "timestamp": "2025-12-27T07:26:25.506970+00:00",
        "meta_object_name": "FENGYUN 1C DEB",
        "meta_object_id": "1999-025CNL",
        "meta_epoch": "2025-12-21T22:06:57.352032",
        "meta_mean_motion": 14.46896532,
        "meta_eccentricity": 0.00273534,
        "meta_inclination": 98.5099,
        "meta_ra_of_asc_node": 226.9733,
        "meta_arg_of_pericenter": 126.577,
        "meta_mean_anomaly": 233.7945,
        "meta_ephemeris_type": 0,
        "meta_classification_type": "U",
        "meta_norad_cat_id": 31959,
        "meta_element_set_no": 999,
        "meta_rev_at_epoch": 64486,
        "meta_bstar": 0.0023827795,
        "meta_mean_motion_dot": 8.652e-05,
        "meta_mean_motion_ddot": 0,
        "tle_line1": "1 31959U 99025CNL 25355.92149713  .00008652  00000+0  23828-2 0  9993",
        "tle_line2": "2 31959  98.5099 226.9733 0027353 126.5770 233.7945 14.46896532644868"
      },
      "geometry": {
        "type": "Point",
        "coordinates": [
          -123.20873831426907,
          -27.151865152659827
        ]
      }
    },
    {
      "type": "Feature",
      "properties": {
        "norad_id": 31964,
        "name": "FENGYUN 1C DEB",
        "group": "fengyun-1c-debris",
        "lat": 10.65829464877841,
        "lon": 123.97335025622492,
        "alt_km": 680.3242685579007,
        "timestamp": "2025-12-27T07:26:25.506984+00:00",
        "meta_object_name": "FENGYUN 1C DEB",
        "meta_object_id": "1999-025CNR",
        "meta_epoch": "2025-12-26T19:52:06.436128",
        "meta_mean_motion": 14.58802604,
        "meta_eccentricity": 0.00287021,
        "meta_inclination": 98.6993,
        "meta_ra_of_asc_node": 125.1199,
        "meta_arg_of_pericenter": 345.6635,
        "meta_mean_anomaly": 14.3745,
        "meta_ephemeris_type": 0,
        "meta_classification_type": "U",
        "meta_norad_cat_id": 31964,
        "meta_element_set_no": 999,
        "meta_rev_at_epoch": 67715,
        "meta_bstar": 0.0029875599,
        "meta_mean_motion_dot": 0.00014021,
        "meta_mean_motion_ddot": 0,
        "tle_line1": "1 31964U 99025CNR 25360.82785227  .00014021  00000+0  29876-2 0  9996",
        "tle_line2": "2 31964  98.6993 125.1199 0028702 345.6635  14.3745 14.58802604677156"
      },
      "geometry": {
        "type": "Point",
        "coordinates": [
          123.97335025622492,
          10.65829464877841
        ]
      }
    },
    {
      "type": "Feature",
      "properties": {
        "norad_id": 31966,
        "name": "FENGYUN 1C DEB",
        "group": "fengyun-1c-debris",
        "lat": 76.74243141755328,
        "lon": 17.75040485739304,
        "alt_km": 699.6411478742493,
        "timestamp": "2025-12-27T07:26:25.506994+00:00",
        "meta_object_name": "FENGYUN 1C DEB",
        "meta_object_id": "1999-025CNT",
        "meta_epoch": "2025-12-26T16:15:20.808288",
        "meta_mean_motion": 14.67749171,
        "meta_eccentricity": 0.0086022,
        "meta_inclination": 99.0179,
        "meta_ra_of_asc_node": 154.6742,
        "meta_arg_of_pericenter": 231.7157,
        "meta_mean_anomaly": 127.6285,
        "meta_ephemeris_type": 0,
        "meta_classification_type": "U",
        "meta_norad_cat_id": 31966,
        "meta_element_set_no": 999,
        "meta_rev_at_epoch": 65947,
        "meta_bstar": 0.0015141867,
        "meta_mean_motion_dot": 9.071e-05,
        "meta_mean_motion_ddot": 0,
        "tle_line1": "1 31966U 99025CNT 25360.67732417  .00009071  00000+0  15142-2 0  9994",
        "tle_line2": "2 31966  99.0179 154.6742 0086022 231.7157 127.6285 14.67749171659474"
      },
      "geometry": {
        "type": "Point",
        "coordinates": [
          17.75040485739304,
          76.74243141755328
        ]
      }
    },
    {
      "type": "Feature",
      "properties": {
        "norad_id": 31972,
        "name": "FENGYUN 1C DEB",
        "group": "fengyun-1c-debris",
        "lat": -50.28636880133267,
        "lon": -148.02587241430763,
        "alt_km": 902.3271228742924,
        "timestamp": "2025-12-27T07:26:25.507004+00:00",
        "meta_object_name": "FENGYUN 1C DEB",
        "meta_object_id": "1999-025CNZ",
        "meta_epoch": "2025-12-24T01:42:34.636608",
        "meta_mean_motion": 14.07519501,
        "meta_eccentricity": 0.00764333,
        "meta_inclination": 99.21,
        "meta_ra_of_asc_node": 39.9378,
        "meta_arg_of_pericenter": 0.4023,
        "meta_mean_anomaly": 29.3212,
        "meta_ephemeris_type": 0,
        "meta_classification_type": "U",
        "meta_norad_cat_id": 31972,
        "meta_element_set_no": 999,
        "meta_rev_at_epoch": 95120,
        "meta_bstar": 0.00020159041,
        "meta_mean_motion_dot": 3.02e-06,
        "meta_mean_motion_ddot": 0,
        "tle_line1": "1 31972U 99025CNZ 25358.07123422  .00000302  00000+0  20159-3 0  9995",
        "tle_line2": "2 31972  99.2100  39.9378 0076433   0.4023  29.3212 14.07519501951205"
      },
      "geometry": {
        "type": "Point",
        "coordinates": [
          -148.02587241430763,
          -50.28636880133267
        ]
      }
    },
    {
      "type": "Feature",
      "properties": {
        "norad_id": 31974,
        "name": "FENGYUN 1C DEB",
        "group": "fengyun-1c-debris",
        "lat": 57.248597608224905,
        "lon": -1.361570555452875,
        "alt_km": 834.8988678399573,
        "timestamp": "2025-12-27T07:26:25.507014+00:00",
        "meta_object_name": "FENGYUN 1C DEB",
        "meta_object_id": "1999-025CPB",
        "meta_epoch": "2025-12-24T23:44:15.961632",
        "meta_mean_motion": 14.29664564,
        "meta_eccentricity": 0.0071341,
        "meta_inclination": 98.3795,
        "meta_ra_of_asc_node": 9.6517,
        "meta_arg_of_pericenter": 266.2671,
        "meta_mean_anomaly": 93.0352,
        "meta_ephemeris_type": 0,
        "meta_classification_type": "U",
        "meta_norad_cat_id": 31974,
        "meta_element_set_no": 999,
        "meta_rev_at_epoch": 69597,
        "meta_bstar": 0.0024190503,
        "meta_mean_motion_dot": 6.335e-05,
        "meta_mean_motion_ddot": 0,
        "tle_line1": "1 31974U 99025CPB 25358.98907363  .00006335  00000+0  24191-2 0  9992",
        "tle_line2": "2 31974  98.3795   9.6517 0071341 266.2671  93.0352 14.29664564695976"
      },
      "geometry": {
        "type": "Point",
        "coordinates": [
          -1.361570555452875,
          57.248597608224905
        ]
      }
    },
    {
      "type": "Feature",
      "properties": {
        "norad_id": 31978,
        "name": "FENGYUN 1C DEB",
        "group": "fengyun-1c-debris",
        "lat": -32.23726894893359,
        "lon": -30.99773802297333,
        "alt_km": 1211.2700290650519,
        "timestamp": "2025-12-27T07:26:25.507024+00:00",
        "meta_object_name": "FENGYUN 1C DEB",
        "meta_object_id": "1999-025CPF",
        "meta_epoch": "2025-12-18T09:15:01.115712",
        "meta_mean_motion": 13.63124115,
        "meta_eccentricity": 0.02630419,
        "meta_inclination": 98.3793,
        "meta_ra_of_asc_node": 146.6417,
        "meta_arg_of_pericenter": 35.0311,
        "meta_mean_anomaly": 326.7827,
        "meta_ephemeris_type": 0,
        "meta_classification_type": "U",
        "meta_norad_cat_id": 31978,
        "meta_element_set_no": 999,
        "meta_rev_at_epoch": 91667,
        "meta_bstar": 0.0010168637,
        "meta_mean_motion_dot": 9.73e-06,
        "meta_mean_motion_ddot": 0,
        "tle_line1": "1 31978U 99025CPF 25352.38542958  .00000973  00000+0  10169-2 0  9991",
        "tle_line2": "2 31978  98.3793 146.6417 0263041  35.0311 326.7827 13.63124115916678"
      },
      "geometry": {
        "type": "Point",
        "coordinates": [
          -30.99773802297333,
          -32.23726894893359
        ]
      }
    },
    {
      "type": "Feature",
      "properties": {
        "norad_id": 31979,
        "name": "FENGYUN 1C DEB",
        "group": "fengyun-1c-debris",
        "lat": 79.73781534687318,
        "lon": -20.595406594588635,
        "alt_km": 1162.7828122000637,
        "timestamp": "2025-12-27T07:26:25.507034+00:00",
        "meta_object_name": "FENGYUN 1C DEB",
        "meta_object_id": "1999-025CPG",
        "meta_epoch": "2025-12-24T00:03:02.329056",
        "meta_mean_motion": 13.69365262,
        "meta_eccentricity": 0.026836,
        "meta_inclination": 99.3762,
        "meta_ra_of_asc_node": 90.3171,
        "meta_arg_of_pericenter": 251.8251,
        "meta_mean_anomaly": 105.351,
        "meta_ephemeris_type": 0,
        "meta_classification_type": "U",
        "meta_norad_cat_id": 31979,
        "meta_element_set_no": 999,
        "meta_rev_at_epoch": 58066,
        "meta_bstar": 0.0034261575,
        "meta_mean_motion_dot": 3.79e-05,
        "meta_mean_motion_ddot": 0,
        "tle_line1": "1 31979U 99025CPG 25358.00211029  .00003790  00000+0  34262-2 0  9999",
        "tle_line2": "2 31979  99.3762  90.3171 0268360 251.8251 105.3510 13.69365262580660"
      },
      "geometry": {
        "type": "Point",
        "coordinates": [
          -20.595406594588635,
          79.73781534687318
        ]
      }
    }
  ]
}